OBJECT_NAME,OBJECT_ID,EPOCH,MEAN_MOTION,ECCENTRICITY,INCLINATION,RA_OF_ASC_NODE,ARG_OF_PERICENTER,MEAN_ANOMALY,EPHEMERIS_TYPE,CLASSIFICATION_TYPE,NORAD_CAT_ID,ELEMENT_SET_NO,REV_AT_EPOCH,BSTAR,MEAN_MOTION_DOT,MEAN_MOTION_DDOT
EXPRESS 103,2020-053A,2026-06-11T03:26:16.461312,1.00272071,.00004171,0.0142,277.0658,132.1582,358.3545,0,U,45985,999,2158,0,-.263E-5,0
EXPRESS 80,2020-053B,2026-06-11T01:22:27.888672,1.00272574,.00024364,0.0148,313.1357,203.3057,203.5815,0,U,45986,999,2156,0,-.119E-5,0
GAOFEN-9 04,2020-054A,2026-06-11T06:54:39.057984,15.37149430,.00121274,97.2436,231.3449,111.2043,249.0499,0,U,46025,999,32545,.29274491E-3,.10594E-3,0
STARLINK-1522,2020-055A,2026-06-10T23:57:29.241504,15.13284020,.0003034,53.0628,64.5609,61.9138,298.2160,0,U,46027,999,32299,.11872285E-2,.21135E-3,0
STARLINK-1523,2020-055B,2026-06-10T23:39:44.568000,15.30586274,.00009467,53.1609,53.3364,115.5232,244.5867,0,U,46028,999,32318,.40752229E-3,.11874E-3,0
STARLINK-1526,2020-055C,2026-06-10T23:33:10.286784,15.30242928,.00011523,53.1595,53.3860,101.7732,258.3398,0,U,46029,999,32317,.5430858E-3,.15781E-3,0
STARLINK-1555,2020-055F,2026-06-10T23:10:27.780384,15.30187092,.00013705,53.1611,53.4362,93.0525,267.0632,0,U,46032,999,32317,.37120561E-4,.74E-5,0
STARLINK-1556,2020-055G,2026-06-11T00:20:14.692416,15.30149916,.00013901,53.1603,53.2339,93.9811,266.1349,0,U,46033,999,32315,-.49734897E-3,-.15037E-3,0
STARLINK-1557,2020-055H,2026-06-11T00:24:45.472608,15.30176011,.0001043,53.1611,53.2142,85.6240,274.4880,0,U,46034,999,32315,.71864574E-4,.1768E-4,0
STARLINK-1558,2020-055J,2026-06-10T23:01:19.679520,15.30204846,.00016605,53.1621,53.4814,95.7847,264.3343,0,U,46035,999,32317,.11191904E-3,.2957E-4,0
STARLINK-1560,2020-055K,2026-06-11T00:15:40.378464,15.30188347,.00012154,53.1597,53.2503,94.1476,265.9664,0,U,46036,999,32318,.63701391E-4,.1527E-4,0
STARLINK-1569,2020-055N,2026-06-10T23:05:52.833120,15.30206257,.00016012,53.1618,53.4586,85.8802,274.2382,0,U,46039,999,32316,.24040623E-3,.6769E-4,0
STARLINK-1582,2020-055S,2026-06-10T23:26:15.972000,15.31727940,.0001227,53.1598,52.7654,86.9366,273.1776,0,U,46043,999,32317,.29514356E-3,.8812E-4,0
STARLINK-1591,2020-055U,2026-06-10T23:52:54.224256,15.30191737,.00012624,53.1593,53.3109,108.0740,252.0399,0,U,46045,999,32315,.28225625E-3,.8007E-4,0
STARLINK-1524,2020-055W,2026-06-10T22:42:06.205824,15.31716414,.00011647,53.1610,40.2092,100.8477,259.2656,0,U,46047,999,32335,.1561379E-3,.4485E-4,0
STARLINK-1527,2020-055X,2026-06-10T22:35:23.350272,15.31717468,.00008972,53.1596,40.2077,80.6044,279.5058,0,U,46048,999,32332,.21031413E-3,.617E-4,0
STARLINK-1540,2020-055AA,2026-06-10T22:15:17.076672,15.31717022,.00011531,53.1626,40.4854,106.8260,253.2868,0,U,46051,999,32336,.11799924E-3,.33E-4,0
STARLINK-1541,2020-055AB,2026-06-11T08:00:01.999872,15.85482072,.00046078,53.1580,21.0814,252.0023,15.2956,0,U,46052,999,601,.52295671E-3,.129539E-2,0
STARLINK-1543,2020-055AC,2026-06-10T23:08:56.837472,15.31717280,.00014508,53.1604,40.1164,93.7067,266.4100,0,U,46053,999,32336,.16456364E-3,.4747E-4,0
STARLINK-1548,2020-055AD,2026-06-10T23:29:05.627040,15.31714959,.00013475,53.1607,40.1252,91.2131,268.9025,0,U,46054,999,32336,.14857081E-3,.425E-4,0
STARLINK-1554,2020-055AE,2026-06-10T23:02:15.844704,15.31702037,.0001014,53.1592,40.1554,88.9779,271.1339,0,U,46055,999,32336,.55115014E-4,.1346E-4,0
STARLINK-1564,2020-055AH,2026-06-10T22:51:32.124096,15.30208716,.00010939,53.1619,41.1740,93.4177,266.6949,0,U,46058,999,32334,.75705656E-4,.1884E-4,0
STARLINK-1570,2020-055AJ,2026-06-10T22:08:30.903360,15.31721204,.00011728,53.1621,40.2104,93.8768,266.2368,0,U,46059,999,32331,.57211785E-4,.1412E-4,0
STARLINK-1572,2020-055AK,2026-06-10T22:24:08.562816,15.30220134,.00013597,53.1610,41.0042,83.6777,276.4379,0,U,46060,999,32331,.17021012E-3,.4688E-4,0
STARLINK-1573,2020-055AL,2026-06-10T23:22:19.974720,15.31732615,.00008769,53.1599,39.9406,115.6256,244.4836,0,U,46061,999,32336,-.18585907E-3,-.6134E-4,0
STARLINK-1577,2020-055AN,2026-06-10T22:28:38.682048,15.31727149,.00012002,53.1602,40.1129,89.9691,270.1448,0,U,46063,999,32335,.22961902E-3,.6773E-4,0
STARLINK-1583,2020-055AP,2026-06-10T22:48:53.567136,15.31727019,.00011207,53.1606,40.5460,101.7706,258.3421,0,U,46064,999,32334,.25382228E-3,.7526E-4,0
STARLINK-1536,2020-055AV,2026-06-10T22:50:44.629152,15.31716878,.00013451,53.1609,27.9279,82.7086,277.4068,0,U,46070,999,32352,.17691983E-3,.5131E-4,0
STARLINK-1542,2020-055AY,2026-06-10T21:51:52.662816,15.31718559,.00010828,53.1607,31.0857,85.8020,274.3105,0,U,46073,999,32346,.215373E-3,.6328E-4,0
STARLINK-1549,2020-055AZ,2026-06-10T22:34:08.647104,15.29609914,.00026518,53.0511,28.1272,128.2368,231.8870,0,U,46074,999,32349,.13374451E-2,.38747E-3,0
