1 45985U 20053A 26162.14324608 -.00000263 00000+0 00000+0 0 9996 
2 45985 0.0142 277.0658 0000417 132.1582 358.3545 1.00272071 21588 
1 45986U 20053B 26162.05726723 -.00000119 00000+0 00000+0 0 9991 
2 45986 0.0148 313.1357 0002436 203.3057 203.5815 1.00272574 21561 
1 46025U 20054A 26162.28795206 .00010594 00000+0 29274-3 0 9999 
2 46025 97.2436 231.3449 0012127 111.2043 249.0499 15.37149430325454 
1 46027U 20055A 26161.99825511 .00021135 00000+0 11872-2 0 9999 
2 46027 53.0628 64.5609 0003034 61.9138 298.2160 15.13284020322992 
1 46028U 20055B 26161.98593250 .00011874 00000+0 40752-3 0 9990 
2 46028 53.1609 53.3364 0000946 115.5232 244.5867 15.30586274323182 
1 46029U 20055C 26161.98136906 .00015781 00000+0 54309-3 0 9996 
2 46029 53.1595 53.3860 0001152 101.7732 258.3398 15.30242928323176 
1 46032U 20055F 26161.96559931 .00000740 00000+0 37121-4 0 9998 
2 46032 53.1611 53.4362 0001370 93.0525 267.0632 15.30187092323170 
1 46033U 20055G 26162.01405894 -.00015037 00000+0 -49735-3 0 9994 
2 46033 53.1603 53.2339 0001390 93.9811 266.1349 15.30149916323159 
1 46034U 20055H 26162.01719297 .00001768 00000+0 71865-4 0 9994 
2 46034 53.1611 53.2142 0001043 85.6240 274.4880 15.30176011323158 
1 46035U 20055J 26161.95925555 .00002957 00000+0 11192-3 0 9990 
2 46035 53.1621 53.4814 0001660 95.7847 264.3343 15.30204846323170 
1 46036U 20055K 26162.01088401 .00001527 00000+0 63701-4 0 9995 
2 46036 53.1597 53.2503 0001215 94.1476 265.9664 15.30188347323184 
1 46039U 20055N 26161.96241705 .00006769 00000+0 24041-3 0 9995 
2 46039 53.1618 53.4586 0001601 85.8802 274.2382 15.30206257323162 
1 46043U 20055S 26161.97657375 .00008812 00000+0 29514-3 0 9996 
2 46043 53.1598 52.7654 0001227 86.9366 273.1776 15.31727940323177 
1 46045U 20055U 26161.99507204 .00008007 00000+0 28226-3 0 9990 
2 46045 53.1593 53.3109 0001262 108.0740 252.0399 15.30191737323150 
1 46047U 20055W 26161.94590516 .00004485 00000+0 15614-3 0 9998 
2 46047 53.1610 40.2092 0001164 100.8477 259.2656 15.31716414323359 
1 46048U 20055X 26161.94124248 .00006170 00000+0 21031-3 0 9997 
2 46048 53.1596 40.2077 0000897 80.6044 279.5058 15.31717468323321 
1 46051U 20055AA 26161.92728098 .00003300 00000+0 11800-3 0 9997 
2 46051 53.1626 40.4854 0001153 106.8260 253.2868 15.31717022323369 
1 46052U 20055AB 26162.33335648 .00129539 00000+0 52296-3 0 9996 
2 46052 53.1580 21.0814 0004607 252.0023 15.2956 15.85482072 6015 
1 46053U 20055AC 26161.96454673 .00004747 00000+0 16456-3 0 9996 
2 46053 53.1604 40.1164 0001450 93.7067 266.4100 15.31717280323368 
1 46054U 20055AD 26161.97853735 .00004250 00000+0 14857-3 0 9992 
2 46054 53.1607 40.1252 0001347 91.2131 268.9025 15.31714959323363 
1 46055U 20055AE 26161.95990561 .00001346 00000+0 55115-4 0 9996 
2 46055 53.1592 40.1554 0001014 88.9779 271.1339 15.31702037323362 
1 46058U 20055AH 26161.95245514 .00001884 00000+0 75706-4 0 9995 
2 46058 53.1619 41.1740 0001093 93.4177 266.6949 15.30208716323341 
1 46059U 20055AJ 26161.92257990 .00001412 00000+0 57212-4 0 9993 
2 46059 53.1621 40.2104 0001172 93.8768 266.2368 15.31721204323318 
1 46060U 20055AK 26161.93343244 .00004688 00000+0 17021-3 0 9995 
2 46060 53.1610 41.0042 0001359 83.6777 276.4379 15.30220134323312 
1 46061U 20055AL 26161.97384230 -.00006134 00000+0 -18586-3 0 9997 
2 46061 53.1599 39.9406 0000876 115.6256 244.4836 15.31732615323361 
1 46063U 20055AN 26161.93655882 .00006773 00000+0 22962-3 0 9999 
2 46063 53.1602 40.1129 0001200 89.9691 270.1448 15.31727149323352 
1 46064U 20055AP 26161.95061999 .00007526 00000+0 25382-3 0 9998 
2 46064 53.1606 40.5460 0001120 101.7706 258.3421 15.31727019323344 
1 46070U 20055AV 26161.95190543 .00005131 00000+0 17692-3 0 9998 
2 46070 53.1609 27.9279 0001345 82.7086 277.4068 15.31716878323529 
1 46073U 20055AY 26161.91102619 .00006328 00000+0 21537-3 0 9996 
2 46073 53.1607 31.0857 0001082 85.8020 274.3105 15.31718559323467 
1 46074U 20055AZ 26161.94037786 .00038747 00000+0 13374-2 0 9991 
2 46074 53.0511 28.1272 0002651 128.2368 231.8870 15.29609914323490 
